[{"OBJECT_NAME":"IRIDIUM 33 DEB","OBJECT_ID":"1997-051GC","EPOCH":"2026-03-05T05:40:25.296096","MEAN_MOTION":14.43373555,"ECCENTRICITY":0.0029401,"INCLINATION":86.3483,"RA_OF_ASC_NODE":336.8757,"ARG_OF_PERICENTER":214.7933,"MEAN_ANOMALY":301.5186,"EPHEMERIS_TYPE":0,"CLASSIFICATION_TYPE":"U","NORAD_CAT_ID":34487,"ELEMENT_SET_NO":999,"REV_AT_EPOCH":89438,"BSTAR":0.00026518,"MEAN_MOTION_DOT":9.19e-6,"MEAN_MOTION_DDOT":0},{"OBJECT_NAME":"IRIDIUM 33 DEB","OBJECT_ID":"1997-051GD","EPOCH":"2026-02-22T01:06:52.109280","MEAN_MOTION":15.78089963,"ECCENTRICITY":0.00047702,"INCLINATION":86.3081,"RA_OF_ASC_NODE":269.542,"ARG_OF_PERICENTER":70.8002,"MEAN_ANOMALY":289.3788,"EPHEMERIS_TYPE":0,"CLASSIFICATION_TYPE":"U","NORAD_CAT_ID":34488,"ELEMENT_SET_NO":999,"REV_AT_EPOCH":90341,"BSTAR":0.0064727089,"MEAN_MOTION_DOT":0.01238203,"MEAN_MOTION_DDOT":0},{"OBJECT_NAME":"IRIDIUM 33 DEB","OBJECT_ID":"1997-051GH","EPOCH":"2026-03-05T16:06:41.388768","MEAN_MOTION":14.27664744,"ECCENTRICITY":0.0186437,"INCLINATION":86.4701,"RA_OF_ASC_NODE":301.0639,"ARG_OF_PERICENTER":332.5819,"MEAN_ANOMALY":80.9913,"EPHEMERIS_TYPE":0,"CLASSIFICATION_TYPE":"U","NORAD_CAT_ID":34492,"ELEMENT_SET_NO":999,"REV_AT_EPOCH":86241,"BSTAR":0.0044371,"MEAN_MOTION_DOT":0.0001319,"MEAN_MOTION_DDOT":0},{"OBJECT_NAME":"IRIDIUM 33 DEB","OBJECT_ID":"1997-051GN","EPOCH":"2026-03-05T03:22:55.083648","MEAN_MOTION":14.27761609,"ECCENTRICITY":0.00820463,"INCLINATION":86.2808,"RA_OF_ASC_NODE":17.1813,"ARG_OF_PERICENTER":72.9678,"MEAN_ANOMALY":308.7481,"EPHEMERIS_TYPE":0,"CLASSIFICATION_TYPE":"U","NORAD_CAT_ID":34497,"ELEMENT_SET_NO":999,"REV_AT_EPOCH":88059,"BSTAR":0.00098078627,"MEAN_MOTION_DOT":2.529e-5,"MEAN_MOTION_DDOT":0},{"OBJECT_NAME":"IRIDIUM 33 DEB","OBJECT_ID":"1997-051GZ","EPOCH":"2026-03-05T10:34:31.543968","MEAN_MOTION":14.39095652,"ECCENTRICITY":0.0061731,"INCLINATION":86.3657,"RA_OF_ASC_NODE":67.5386,"ARG_OF_PERICENTER":262.0211,"MEAN_ANOMALY":97.3979,"EPHEMERIS_TYPE":0,"CLASSIFICATION_TYPE":"U","NORAD_CAT_ID":34508,"ELEMENT_SET_NO":999,"REV_AT_EPOCH":88498,"BSTAR":0.0014994,"MEAN_MOTION_DOT":4.758e-5,"MEAN_MOTION_DDOT":0},{"OBJECT_NAME":"IRIDIUM 33 DEB","OBJECT_ID":"1997-051HN","EPOCH":"2026-03-05T18:21:08.946432","MEAN_MOTION":14.64597391,"ECCENTRICITY":0.0004811,"INCLINATION":86.3835,"RA_OF_ASC_NODE":353.9676,"ARG_OF_PERICENTER":18.4378,"MEAN_ANOMALY":341.7008,"EPHEMERIS_TYPE":0,"CLASSIFICATION_TYPE":"U","NORAD_CAT_ID":34521,"ELEMENT_SET_NO":999,"REV_AT_EPOCH":89687,"BSTAR":0.0017763,"MEAN_MOTION_DOT":9.457e-5,"MEAN_MOTION_DDOT":0},{"OBJECT_NAME":"IRIDIUM 33 DEB","OBJECT_ID":"1997-051HS","EPOCH":"2026-03-05T07:09:40.438944","MEAN_MOTION":14.43159737,"ECCENTRICITY":0.0004663,"INCLINATION":86.3769,"RA_OF_ASC_NODE":11.5932,"ARG_OF_PERICENTER":149.9676,"MEAN_ANOMALY":12.5702,"EPHEMERIS_TYPE":0,"CLASSIFICATION_TYPE":"U","NORAD_CAT_ID":34525,"ELEMENT_SET_NO":999,"REV_AT_EPOCH":89278,"BSTAR":0.00054837,"MEAN_MOTION_DOT":1.861e-5,"MEAN_MOTION_DDOT":0},{"OBJECT_NAME":"IRIDIUM 33 DEB","OBJECT_ID":"1997-051HW","EPOCH":"2026-03-05T06:48:25.009920","MEAN_MOTION":14.40731392,"ECCENTRICITY":0.0003235,"INCLINATION":86.3692,"RA_OF_ASC_NODE":0.2249,"ARG_OF_PERICENTER":310.4858,"MEAN_ANOMALY":49.6059,"EPHEMERIS_TYPE":0,"CLASSIFICATION_TYPE":"U","NORAD_CAT_ID":34529,"ELEMENT_SET_NO":999,"REV_AT_EPOCH":89330,"BSTAR":0.00028518,"MEAN_MOTION_DOT":9.31e-6,"MEAN_MOTION_DDOT":0},{"OBJECT_NAME":"IRIDIUM 33 DEB","OBJECT_ID":"1997-051JF","EPOCH":"2026-03-05T05:07:30.663840","MEAN_MOTION":14.43250851,"ECCENTRICITY":0.0036535,"INCLINATION":86.2798,"RA_OF_ASC_NODE":329.4341,"ARG_OF_PERICENTER":53.1181,"MEAN_ANOMALY":99.4793,"EPHEMERIS_TYPE":0,"CLASSIFICATION_TYPE":"U","NORAD_CAT_ID":34538,"ELEMENT_SET_NO":999,"REV_AT_EPOCH":88945,"BSTAR":0.0010641333,"MEAN_MOTION_DOT":3.628e-5,"MEAN_MOTION_DDOT":0},{"OBJECT_NAME":"IRIDIUM 33 DEB","OBJECT_ID":"1997-051JH","EPOCH":"2026-03-05T00:47:05.061408","MEAN_MOTION":14.77297554,"ECCENTRICITY":0.00144462,"INCLINATION":86.3053,"RA_OF_ASC_NODE":269.9177,"ARG_OF_PERICENTER":241.2226,"MEAN_ANOMALY":270.7202,"EPHEMERIS_TYPE":0,"CLASSIFICATION_TYPE":"U","NORAD_CAT_ID":34540,"ELEMENT_SET_NO":999,"REV_AT_EPOCH":90235,"BSTAR":0.0015631073,"MEAN_MOTION_DOT":0.0001114,"MEAN_MOTION_DDOT":0},{"OBJECT_NAME":"IRIDIUM 33 DEB","OBJECT_ID":"1997-051JZ","EPOCH":"2026-03-05T12:01:32.760768","MEAN_MOTION":14.13356662,"ECCENTRICITY":0.01758,"INCLINATION":86.3879,"RA_OF_ASC_NODE":248.4805,"ARG_OF_PERICENTER":36.4413,"MEAN_ANOMALY":324.8586,"EPHEMERIS_TYPE":0,"CLASSIFICATION_TYPE":"U","NORAD_CAT_ID":34648,"ELEMENT_SET_NO":999,"REV_AT_EPOCH":86129,"BSTAR":0.0037111,"MEAN_MOTION_DOT":8.091e-5,"MEAN_MOTION_DDOT":0},{"OBJECT_NAME":"IRIDIUM 33 DEB","OBJECT_ID":"1997-051KC","EPOCH":"2026-03-04T12:51:04.823136","MEAN_MOTION":14.27201856,"ECCENTRICITY":0.0131921,"INCLINATION":86.2781,"RA_OF_ASC_NODE":105.7221,"ARG_OF_PERICENTER":300.5078,"MEAN_ANOMALY":58.3142,"EPHEMERIS_TYPE":0,"CLASSIFICATION_TYPE":"U","NORAD_CAT_ID":34651,"ELEMENT_SET_NO":999,"REV_AT_EPOCH":87062,"BSTAR":0.0036418,"MEAN_MOTION_DOT":9.776e-5,"MEAN_MOTION_DDOT":0},{"OBJECT_NAME":"IRIDIUM 33 DEB","OBJECT_ID":"1997-051KD","EPOCH":"2026-03-03T16:36:26.735040","MEAN_MOTION":14.62914267,"ECCENTRICITY":0.00290077,"INCLINATION":86.3295,"RA_OF_ASC_NODE":303.9474,"ARG_OF_PERICENTER":22.9599,"MEAN_ANOMALY":32.4891,"EPHEMERIS_TYPE":0,"CLASSIFICATION_TYPE":"U","NORAD_CAT_ID":34652,"ELEMENT_SET_NO":999,"REV_AT_EPOCH":89667,"BSTAR":0.00092810952,"MEAN_MOTION_DOT":4.797e-5,"MEAN_MOTION_DDOT":0},{"OBJECT_NAME":"IRIDIUM 33 DEB","OBJECT_ID":"1997-051KM","EPOCH":"2026-03-05T13:50:55.051584","MEAN_MOTION":14.55443995,"ECCENTRICITY":0.0012607,"INCLINATION":86.3823,"RA_OF_ASC_NODE":0.9802,"ARG_OF_PERICENTER":93.522,"MEAN_ANOMALY":30.9234,"EPHEMERIS_TYPE":0,"CLASSIFICATION_TYPE":"U","NORAD_CAT_ID":34690,"ELEMENT_SET_NO":999,"REV_AT_EPOCH":89299,"BSTAR":0.00059194,"MEAN_MOTION_DOT":2.596e-5,"MEAN_MOTION_DDOT":0},{"OBJECT_NAME":"IRIDIUM 33 DEB","OBJECT_ID":"1997-051KQ","EPOCH":"2026-02-24T23:46:27.128064","MEAN_MOTION":15.78525,"ECCENTRICITY":0.00039393,"INCLINATION":86.2833,"RA_OF_ASC_NODE":265.9163,"ARG_OF_PERICENTER":44.5223,"MEAN_ANOMALY":315.6368,"EPHEMERIS_TYPE":0,"CLASSIFICATION_TYPE":"U","NORAD_CAT_ID":34693,"ELEMENT_SET_NO":999,"REV_AT_EPOCH":90061,"BSTAR":0.0068576941,"MEAN_MOTION_DOT":0.01322234,"MEAN_MOTION_DDOT":0},{"OBJECT_NAME":"IRIDIUM 33 DEB","OBJECT_ID":"1997-051KT","EPOCH":"2026-03-05T18:08:58.639200","MEAN_MOTION":14.72031398,"ECCENTRICITY":0.0057296,"INCLINATION":86.183,"RA_OF_ASC_NODE":348.7018,"ARG_OF_PERICENTER":246.0228,"MEAN_ANOMALY":143.204,"EPHEMERIS_TYPE":0,"CLASSIFICATION_TYPE":"U","NORAD_CAT_ID":34696,"ELEMENT_SET_NO":999,"REV_AT_EPOCH":87891,"BSTAR":0.0060867,"MEAN_MOTION_DOT":0.0003942,"MEAN_MOTION_DDOT":0}]
