IRIDIUM 33 DEB          
1 34487U 97051GC  26064.23640389  .00000919  00000+0  26518-3 0  9994
2 34487  86.3483 336.8757 0029401 214.7933 301.5186 14.43373555894380
IRIDIUM 33 DEB          
1 34488U 97051GD  26053.04643645  .01238203  00000+0  64727-2 0  9993
2 34488  86.3081 269.5420 0004770  70.8002 289.3788 15.78089963903416
IRIDIUM 33 DEB          
1 34492U 97051GH  26064.67131237  .00013190  00000+0  44371-2 0  9996
2 34492  86.4701 301.0639 0186437 332.5819  80.9913 14.27664744862418
IRIDIUM 33 DEB          
1 34497U 97051GN  26064.14091532  .00002529  00000+0  98079-3 0  9995
2 34497  86.2808  17.1813 0082046  72.9678 308.7481 14.27761609880595
IRIDIUM 33 DEB          
1 34508U 97051GZ  26064.44064287  .00004758  00000+0  14994-2 0  9997
2 34508  86.3657  67.5386 0061731 262.0211  97.3979 14.39095652884989
IRIDIUM 33 DEB          
1 34521U 97051HN  26064.76468688  .00009457  00000+0  17763-2 0  9998
2 34521  86.3835 353.9676 0004811  18.4378 341.7008 14.64597391896874
IRIDIUM 33 DEB          
1 34525U 97051HS  26064.29838471  .00001861  00000+0  54837-3 0  9996
2 34525  86.3769  11.5932 0004663 149.9676  12.5702 14.43159737892787
IRIDIUM 33 DEB          
1 34529U 97051HW  26064.28362280  .00000931  00000+0  28518-3 0  9993
2 34529  86.3692   0.2249 0003235 310.4858  49.6059 14.40731392893308
IRIDIUM 33 DEB          
1 34538U 97051JF  26064.21354935  .00003628  00000+0  10641-2 0  9997
2 34538  86.2798 329.4341 0036535  53.1181  99.4793 14.43250851889450
IRIDIUM 33 DEB          
1 34540U 97051JH  26064.03269747  .00011140  00000+0  15631-2 0  9998
2 34540  86.3053 269.9177 0014446 241.2226 270.7202 14.77297554902352
IRIDIUM 33 DEB          
1 34648U 97051JZ  26064.50107362  .00008091  00000+0  37111-2 0  9991
2 34648  86.3879 248.4805 0175800  36.4413 324.8586 14.13356662861290
IRIDIUM 33 DEB          
1 34651U 97051KC  26063.53547249  .00009776  00000+0  36418-2 0  9999
2 34651  86.2781 105.7221 0131921 300.5078  58.3142 14.27201856870623
IRIDIUM 33 DEB          
1 34652U 97051KD  26062.69197610  .00004797  00000+0  92811-3 0  9997
2 34652  86.3295 303.9474 0029007  22.9599  32.4891 14.62914267896674
IRIDIUM 33 DEB          
1 34690U 97051KM  26064.57702606  .00002596  00000+0  59194-3 0  9997
2 34690  86.3823   0.9802 0012607  93.5220  30.9234 14.55443995892997
IRIDIUM 33 DEB          
1 34693U 97051KQ  26055.99059176  .01322234  00000+0  68577-2 0  9992
2 34693  86.2833 265.9163 0003939  44.5223 315.6368 15.78525000900614
IRIDIUM 33 DEB          
1 34696U 97051KT  26064.75623425  .00039420  00000+0  60867-2 0  9998
2 34696  86.1830 348.7018 0057296 246.0228 143.2040 14.72031398878915
